ONEWEB-0275             
1 48993U 21060AC  25092.90304537  .00000119  00000+0  27886-3 0  9995
2 48993  87.9056 316.5482 0001785  79.6031 280.5301 13.16593474182919
ONEWEB-0276             
1 48994U 21060AD  25092.63232282  .00000196  00000+0  47835-3 0  9994
2 48994  87.9059 316.5985 0001576  73.1215 287.0089 13.16592106181603
ONEWEB-0277             
1 48995U 21060AE  25092.64497018 -.00000059  00000+0 -18856-3 0  9997
2 48995  87.9058 316.6333 0001941  70.7378 289.3963 13.16594896181592
ONEWEB-0278             
1 48996U 21060AF  25092.63547097 -.00000049  00000+0 -16087-3 0  9993
2 48996  87.9060 316.5947 0001432  84.8689 275.2605 13.16594144181720
ONEWEB-0279             
1 48997U 21060AG  25092.87136799  .00001214  00000+0  31408-2 0  9999
2 48997  87.9058 316.5436 0002240  79.8654 280.2729 13.16597626182985
ONEWEB-0280             
1 48998U 21060AH  25092.65841361 -.00000181  00000+0 -50685-3 0  9997
2 48998  87.9059 316.5922 0001475  71.5363 288.5928 13.16595630181593
ONEWEB-0281             
1 48999U 21060AJ  25092.66396993 -.00000016  00000+0 -76061-4 0  9999
2 48999  87.9057 316.5897 0001835  85.4880 274.6461 13.16593212181661
ONEWEB-0282             
1 49000U 21060AK  25092.84603056 -.00003790  00000+0 -99519-2 0  9997
2 49000  87.9056 316.5691 0001720  81.4276 278.7049 13.16589831182989
