<?xml version="1.0" encoding="UTF-8"?>
<ndm xmlns:xsi="http://www.w3.org/2001/XMLSchema-instance" xsi:noNamespaceSchemaLocation="https://sanaregistry.org/r/ndmxml_unqualified/ndmxml-2.0.0-master-2.0.xsd">
<omm id="CCSDS_OMM_VERS" version="2.0">
<header><CREATION_DATE/><ORIGINATOR/></header><body><segment><metadata><OBJECT_NAME>ONEWEB-0275</OBJECT_NAME><OBJECT_ID>2021-060AC</OBJECT_ID><CENTER_NAME>EARTH</CENTER_NAME><REF_FRAME>TEME</REF_FRAME><TIME_SYSTEM>UTC</TIME_SYSTEM><MEAN_ELEMENT_THEORY>SGP4</MEAN_ELEMENT_THEORY></metadata><data><meanElements><EPOCH>2025-04-02T21:40:23.119968</EPOCH><MEAN_MOTION>13.16593474</MEAN_MOTION><ECCENTRICITY>.0001785</ECCENTRICITY><INCLINATION>87.9056</INCLINATION><RA_OF_ASC_NODE>316.5482</RA_OF_ASC_NODE><ARG_OF_PERICENTER>79.6031</ARG_OF_PERICENTER><MEAN_ANOMALY>280.5301</MEAN_ANOMALY></meanElements><tleParameters><EPHEMERIS_TYPE>0</EPHEMERIS_TYPE><CLASSIFICATION_TYPE>U</CLASSIFICATION_TYPE><NORAD_CAT_ID>48993</NORAD_CAT_ID><ELEMENT_SET_NO>999</ELEMENT_SET_NO><REV_AT_EPOCH>18291</REV_AT_EPOCH><BSTAR>.27886E-3</BSTAR><MEAN_MOTION_DOT>.119E-5</MEAN_MOTION_DOT><MEAN_MOTION_DDOT>0</MEAN_MOTION_DDOT></tleParameters></data></segment></body></omm>
<omm id="CCSDS_OMM_VERS" version="2.0">
<header><CREATION_DATE/><ORIGINATOR/></header><body><segment><metadata><OBJECT_NAME>ONEWEB-0276</OBJECT_NAME><OBJECT_ID>2021-060AD</OBJECT_ID><CENTER_NAME>EARTH</CENTER_NAME><REF_FRAME>TEME</REF_FRAME><TIME_SYSTEM>UTC</TIME_SYSTEM><MEAN_ELEMENT_THEORY>SGP4</MEAN_ELEMENT_THEORY></metadata><data><meanElements><EPOCH>2025-04-02T15:10:32.691648</EPOCH><MEAN_MOTION>13.16592106</MEAN_MOTION><ECCENTRICITY>.0001576</ECCENTRICITY><INCLINATION>87.9059</INCLINATION><RA_OF_ASC_NODE>316.5985</RA_OF_ASC_NODE><ARG_OF_PERICENTER>73.1215</ARG_OF_PERICENTER><MEAN_ANOMALY>287.0089</MEAN_ANOMALY></meanElements><tleParameters><EPHEMERIS_TYPE>0</EPHEMERIS_TYPE><CLASSIFICATION_TYPE>U</CLASSIFICATION_TYPE><NORAD_CAT_ID>48994</NORAD_CAT_ID><ELEMENT_SET_NO>999</ELEMENT_SET_NO><REV_AT_EPOCH>18160</REV_AT_EPOCH><BSTAR>.47835E-3</BSTAR><MEAN_MOTION_DOT>.196E-5</MEAN_MOTION_DOT><MEAN_MOTION_DDOT>0</MEAN_MOTION_DDOT></tleParameters></data></segment></body></omm>
<omm id="CCSDS_OMM_VERS" version="2.0">
<header><CREATION_DATE/><ORIGINATOR/></header><body><segment><metadata><OBJECT_NAME>ONEWEB-0277</OBJECT_NAME><OBJECT_ID>2021-060AE</OBJECT_ID><CENTER_NAME>EARTH</CENTER_NAME><REF_FRAME>TEME</REF_FRAME><TIME_SYSTEM>UTC</TIME_SYSTEM><MEAN_ELEMENT_THEORY>SGP4</MEAN_ELEMENT_THEORY></metadata><data><meanElements><EPOCH>2025-04-02T15:28:45.423552</EPOCH><MEAN_MOTION>13.16594896</MEAN_MOTION><ECCENTRICITY>.0001941</ECCENTRICITY><INCLINATION>87.9058</INCLINATION><RA_OF_ASC_NODE>316.6333</RA_OF_ASC_NODE><ARG_OF_PERICENTER>70.7378</ARG_OF_PERICENTER><MEAN_ANOMALY>289.3963</MEAN_ANOMALY></meanElements><tleParameters><EPHEMERIS_TYPE>0</EPHEMERIS_TYPE><CLASSIFICATION_TYPE>U</CLASSIFICATION_TYPE><NORAD_CAT_ID>48995</NORAD_CAT_ID><ELEMENT_SET_NO>999</ELEMENT_SET_NO><REV_AT_EPOCH>18159</REV_AT_EPOCH><BSTAR>-.18856E-3</BSTAR><MEAN_MOTION_DOT>-.59E-6</MEAN_MOTION_DOT><MEAN_MOTION_DDOT>0</MEAN_MOTION_DDOT></tleParameters></data></segment></body></omm>
<omm id="CCSDS_OMM_VERS" version="2.0">
<header><CREATION_DATE/><ORIGINATOR/></header><body><segment><metadata><OBJECT_NAME>ONEWEB-0278</OBJECT_NAME><OBJECT_ID>2021-060AF</OBJECT_ID><CENTER_NAME>EARTH</CENTER_NAME><REF_FRAME>TEME</REF_FRAME><TIME_SYSTEM>UTC</TIME_SYSTEM><MEAN_ELEMENT_THEORY>SGP4</MEAN_ELEMENT_THEORY></metadata><data><meanElements><EPOCH>2025-04-02T15:15:04.691808</EPOCH><MEAN_MOTION>13.16594144</MEAN_MOTION><ECCENTRICITY>.0001432</ECCENTRICITY><INCLINATION>87.9060</INCLINATION><RA_OF_ASC_NODE>316.5947</RA_OF_ASC_NODE><ARG_OF_PERICENTER>84.8689</ARG_OF_PERICENTER><MEAN_ANOMALY>275.2605</MEAN_ANOMALY></meanElements><tleParameters><EPHEMERIS_TYPE>0</EPHEMERIS_TYPE><CLASSIFICATION_TYPE>U</CLASSIFICATION_TYPE><NORAD_CAT_ID>48996</NORAD_CAT_ID><ELEMENT_SET_NO>999</ELEMENT_SET_NO><REV_AT_EPOCH>18172</REV_AT_EPOCH><BSTAR>-.16087E-3</BSTAR><MEAN_MOTION_DOT>-.49E-6</MEAN_MOTION_DOT><MEAN_MOTION_DDOT>0</MEAN_MOTION_DDOT></tleParameters></data></segment></body></omm>
<omm id="CCSDS_OMM_VERS" version="2.0">
<header><CREATION_DATE/><ORIGINATOR/></header><body><segment><metadata><OBJECT_NAME>ONEWEB-0279</OBJECT_NAME><OBJECT_ID>2021-060AG</OBJECT_ID><CENTER_NAME>EARTH</CENTER_NAME><REF_FRAME>TEME</REF_FRAME><TIME_SYSTEM>UTC</TIME_SYSTEM><MEAN_ELEMENT_THEORY>SGP4</MEAN_ELEMENT_THEORY></metadata><data><meanElements><EPOCH>2025-04-02T20:54:46.194336</EPOCH><MEAN_MOTION>13.16597626</MEAN_MOTION><ECCENTRICITY>.000224</ECCENTRICITY><INCLINATION>87.9058</INCLINATION><RA_OF_ASC_NODE>316.5436</RA_OF_ASC_NODE><ARG_OF_PERICENTER>79.8654</ARG_OF_PERICENTER><MEAN_ANOMALY>280.2729</MEAN_ANOMALY></meanElements><tleParameters><EPHEMERIS_TYPE>0</EPHEMERIS_TYPE><CLASSIFICATION_TYPE>U</CLASSIFICATION_TYPE><NORAD_CAT_ID>48997</NORAD_CAT_ID><ELEMENT_SET_NO>999</ELEMENT_SET_NO><REV_AT_EPOCH>18298</REV_AT_EPOCH><BSTAR>.31408E-2</BSTAR><MEAN_MOTION_DOT>.1214E-4</MEAN_MOTION_DOT><MEAN_MOTION_DDOT>0</MEAN_MOTION_DDOT></tleParameters></data></segment></body></omm>
<omm id="CCSDS_OMM_VERS" version="2.0">
<header><CREATION_DATE/><ORIGINATOR/></header><body><segment><metadata><OBJECT_NAME>ONEWEB-0280</OBJECT_NAME><OBJECT_ID>2021-060AH</OBJECT_ID><CENTER_NAME>EARTH</CENTER_NAME><REF_FRAME>TEME</REF_FRAME><TIME_SYSTEM>UTC</TIME_SYSTEM><MEAN_ELEMENT_THEORY>SGP4</MEAN_ELEMENT_THEORY></metadata><data><meanElements><EPOCH>2025-04-02T15:48:06.935904</EPOCH><MEAN_MOTION>13.16595630</MEAN_MOTION><ECCENTRICITY>.0001475</ECCENTRICITY><INCLINATION>87.9059</INCLINATION><RA_OF_ASC_NODE>316.5922</RA_OF_ASC_NODE><ARG_OF_PERICENTER>71.5363</ARG_OF_PERICENTER><MEAN_ANOMALY>288.5928</MEAN_ANOMALY></meanElements><tleParameters><EPHEMERIS_TYPE>0</EPHEMERIS_TYPE><CLASSIFICATION_TYPE>U</CLASSIFICATION_TYPE><NORAD_CAT_ID>48998</NORAD_CAT_ID><ELEMENT_SET_NO>999</ELEMENT_SET_NO><REV_AT_EPOCH>18159</REV_AT_EPOCH><BSTAR>-.50685E-3</BSTAR><MEAN_MOTION_DOT>-.181E-5</MEAN_MOTION_DOT><MEAN_MOTION_DDOT>0</MEAN_MOTION_DDOT></tleParameters></data></segment></body></omm>
<omm id="CCSDS_OMM_VERS" version="2.0">
<header><CREATION_DATE/><ORIGINATOR/></header><body><segment><metadata><OBJECT_NAME>ONEWEB-0281</OBJECT_NAME><OBJECT_ID>2021-060AJ</OBJECT_ID><CENTER_NAME>EARTH</CENTER_NAME><REF_FRAME>TEME</REF_FRAME><TIME_SYSTEM>UTC</TIME_SYSTEM><MEAN_ELEMENT_THEORY>SGP4</MEAN_ELEMENT_THEORY></metadata><data><meanElements><EPOCH>2025-04-02T15:56:07.001952</EPOCH><MEAN_MOTION>13.16593212</MEAN_MOTION><ECCENTRICITY>.0001835</ECCENTRICITY><INCLINATION>87.9057</INCLINATION><RA_OF_ASC_NODE>316.5897</RA_OF_ASC_NODE><ARG_OF_PERICENTER>85.4880</ARG_OF_PERICENTER><MEAN_ANOMALY>274.6461</MEAN_ANOMALY></meanElements><tleParameters><EPHEMERIS_TYPE>0</EPHEMERIS_TYPE><CLASSIFICATION_TYPE>U</CLASSIFICATION_TYPE><NORAD_CAT_ID>48999</NORAD_CAT_ID><ELEMENT_SET_NO>999</ELEMENT_SET_NO><REV_AT_EPOCH>18166</REV_AT_EPOCH><BSTAR>-.76061E-4</BSTAR><MEAN_MOTION_DOT>-.16E-6</MEAN_MOTION_DOT><MEAN_MOTION_DDOT>0</MEAN_MOTION_DDOT></tleParameters></data></segment></body></omm>
<omm id="CCSDS_OMM_VERS" version="2.0">
<header><CREATION_DATE/><ORIGINATOR/></header><body><segment><metadata><OBJECT_NAME>ONEWEB-0282</OBJECT_NAME><OBJECT_ID>2021-060AK</OBJECT_ID><CENTER_NAME>EARTH</CENTER_NAME><REF_FRAME>TEME</REF_FRAME><TIME_SYSTEM>UTC</TIME_SYSTEM><MEAN_ELEMENT_THEORY>SGP4</MEAN_ELEMENT_THEORY></metadata><data><meanElements><EPOCH>2025-04-02T20:18:17.040384</EPOCH><MEAN_MOTION>13.16589831</MEAN_MOTION><ECCENTRICITY>.000172</ECCENTRICITY><INCLINATION>87.9056</INCLINATION><RA_OF_ASC_NODE>316.5691</RA_OF_ASC_NODE><ARG_OF_PERICENTER>81.4276</ARG_OF_PERICENTER><MEAN_ANOMALY>278.7049</MEAN_ANOMALY></meanElements><tleParameters><EPHEMERIS_TYPE>0</EPHEMERIS_TYPE><CLASSIFICATION_TYPE>U</CLASSIFICATION_TYPE><NORAD_CAT_ID>49000</NORAD_CAT_ID><ELEMENT_SET_NO>999</ELEMENT_SET_NO><REV_AT_EPOCH>18298</REV_AT_EPOCH><BSTAR>-.99519E-2</BSTAR><MEAN_MOTION_DOT>-.379E-4</MEAN_MOTION_DOT><MEAN_MOTION_DDOT>0</MEAN_MOTION_DDOT></tleParameters></data></segment></body></omm>

</ndm>
